[
    {
        "Altitude(m)": 716510.7876302581,
        "Argument of Periapsis(deg)": 0.004556048474650827,
        "Eccentricity": 0.0,
        "Inclination(deg)": 45.0,
        "Latitude(deg)": -41.82947471997585,
        "Longitude(deg)": 112.61115797577732,
        "Mean Anomaly(deg)": -109.93221334100768,
        "RAAN(deg)": 329.9956992234167,
        "Satellite Name": "Constellation 1 1467",
        "Satellite Number": 1467,
        "Semi-Major Axis(m)": 7083131.272910544,
        "Time(s)": 76
    },
    {
        "Altitude(m)": 716518.8694990338,
        "Argument of Periapsis(deg)": 0.004615996480896233,
        "Eccentricity": 0.0,
        "Inclination(deg)": 45.0,
        "Latitude(deg)": -41.84899748549748,
        "Longitude(deg)": 112.68382696356649,
        "Mean Anomaly(deg)": -109.8715122007578,
        "RAAN(deg)": 329.99564263425117,
        "Satellite Name": "Constellation 1 1467",
        "Satellite Number": 1467,
        "Semi-Major Axis(m)": 7083131.272910544,
        "Time(s)": 77
    },
    {
        "Altitude(m)": 716526.9299854024,
        "Argument of Periapsis(deg)": 0.004675944487141638,
        "Eccentricity": 0.0,
        "Inclination(deg)": 45.0,
        "Latitude(deg)": -41.868468828509926,
        "Longitude(deg)": 112.75654247620417,
        "Mean Anomaly(deg)": -109.81081106050794,
        "RAAN(deg)": 329.99558604508553,
        "Satellite Name": "Constellation 1 1467",
        "Satellite Number": 1467,
        "Semi-Major Axis(m)": 7083131.272910544,
        "Time(s)": 78
    },
    {
        "Altitude(m)": 716534.969059794,
        "Argument of Periapsis(deg)": 0.004735892493387044,
        "Eccentricity": 0.0,
        "Inclination(deg)": 45.0,
        "Latitude(deg)": -41.88788868359004,
        "Longitude(deg)": 112.82930445094667,
        "Mean Anomaly(deg)": -109.75010992025797,
        "RAAN(deg)": 329.99552945592,
        "Satellite Name": "Constellation 1 1467",
        "Satellite Number": 1467,
        "Semi-Major Axis(m)": 7083131.272910544,
        "Time(s)": 79
    },
    {
        "Altitude(m)": 716542.9866927116,
        "Argument of Periapsis(deg)": 0.004795840499632449,
        "Eccentricity": 0.0,
        "Inclination(deg)": 45.0,
        "Latitude(deg)": -41.90725698538538,
        "Longitude(deg)": 112.90211282451149,
        "Mean Anomaly(deg)": -109.68940878000814,
        "RAAN(deg)": 329.9954728667544,
        "Satellite Name": "Constellation 1 1467",
        "Satellite Number": 1467,
        "Semi-Major Axis(m)": 7083131.272910544,
        "Time(s)": 80
    },
    {
        "Altitude(m)": 716550.982854736,
        "Argument of Periapsis(deg)": 0.004855788505877855,
        "Eccentricity": 0.0,
        "Inclination(deg)": 45.0,
        "Latitude(deg)": -41.92657366861502,
        "Longitude(deg)": 112.97496753307743,
        "Mean Anomaly(deg)": -109.62870763975816,
        "RAAN(deg)": 329.9954162775889,
        "Satellite Name": "Constellation 1 1467",
        "Satellite Number": 1467,
        "Semi-Major Axis(m)": 7083131.272910544,
        "Time(s)": 81
    },
    {
        "Altitude(m)": 716558.9575165269,
        "Argument of Periapsis(deg)": 0.00491573651212326,
        "Eccentricity": 0.0,
        "Inclination(deg)": 45.0,
        "Latitude(deg)": -41.94583866807025,
        "Longitude(deg)": 113.04786834418638,
        "Mean Anomaly(deg)": -109.56800649950831,
        "RAAN(deg)": 329.9953596884233,
        "Satellite Name": "Constellation 1 1467",
        "Satellite Number": 1467,
        "Semi-Major Axis(m)": 7083131.272910544,
        "Time(s)": 82
    },
    {
        "Altitude(m)": 716566.9106488238,
        "Argument of Periapsis(deg)": 0.004975684518368666,
        "Eccentricity": 0.0,
        "Inclination(deg)": 45.0,
        "Latitude(deg)": -41.96505191861583,
        "Longitude(deg)": 113.12081552913016,
        "Mean Anomaly(deg)": -109.50730535925841,
        "RAAN(deg)": 329.9953030992577,
        "Satellite Name": "Constellation 1 1467",
        "Satellite Number": 1467,
        "Semi-Major Axis(m)": 7083131.272910544,
        "Time(s)": 83
    },
    {
        "Altitude(m)": 716574.8422224297,
        "Argument of Periapsis(deg)": 0.005035632524614072,
        "Eccentricity": 0.0,
        "Inclination(deg)": 45.0,
        "Latitude(deg)": -41.984213355190185,
        "Longitude(deg)": 113.1938088543693,
        "Mean Anomaly(deg)": -109.44660421900846,
        "RAAN(deg)": 329.99524651009216,
        "Satellite Name": "Constellation 1 1467",
        "Satellite Number": 1467,
        "Semi-Major Axis(m)": 7083131.272910544,
        "Time(s)": 84
    },
    {
        "Altitude(m)": 716582.752208247,
        "Argument of Periapsis(deg)": 0.0050955805308594785,
        "Eccentricity": 0.0,
        "Inclination(deg)": 45.0,
        "Latitude(deg)": -42.00332291280666,
        "Longitude(deg)": 113.26684825391895,
        "Mean Anomaly(deg)": -109.38590307875863,
        "RAAN(deg)": 329.9951899209266,
        "Satellite Name": "Constellation 1 1467",
        "Satellite Number": 1467,
        "Semi-Major Axis(m)": 7083131.272910544,
        "Time(s)": 85
    },
    {
        "Altitude(m)": 716590.6405772392,
        "Argument of Periapsis(deg)": 0.005155528537104883,
        "Eccentricity": 0.0,
        "Inclination(deg)": 45.0,
        "Latitude(deg)": -42.02238052655426,
        "Longitude(deg)": 113.33993366125215,
        "Mean Anomaly(deg)": -109.32520193850876,
        "RAAN(deg)": 329.99513333176105,
        "Satellite Name": "Constellation 1 1467",
        "Satellite Number": 1467,
        "Semi-Major Axis(m)": 7083131.272910544,
        "Time(s)": 86
    },
    {
        "Altitude(m)": 716598.5073004601,
        "Argument of Periapsis(deg)": 0.0052154765433502885,
        "Eccentricity": 0.0,
        "Inclination(deg)": 45.0,
        "Latitude(deg)": -42.04138613159849,
        "Longitude(deg)": 113.4130650092991,
        "Mean Anomaly(deg)": -109.26450079825882,
        "RAAN(deg)": 329.9950767425955,
        "Satellite Name": "Constellation 1 1467",
        "Satellite Number": 1467,
        "Semi-Major Axis(m)": 7083131.272910544,
        "Time(s)": 87
    },
    {
        "Altitude(m)": 716606.3523490289,
        "Argument of Periapsis(deg)": 0.005275424549595694,
        "Eccentricity": 0.0,
        "Inclination(deg)": 45.0,
        "Latitude(deg)": -42.060339663182205,
        "Longitude(deg)": 113.48624223044592,
        "Mean Anomaly(deg)": -109.20379965800882,
        "RAAN(deg)": 329.99502015342983,
        "Satellite Name": "Constellation 1 1467",
        "Satellite Number": 1467,
        "Semi-Major Axis(m)": 7083131.272910544,
        "Time(s)": 88
    },
    {
        "Altitude(m)": 716614.1756941446,
        "Argument of Periapsis(deg)": 0.0053353725558411,
        "Eccentricity": 0.0,
        "Inclination(deg)": 45.0,
        "Latitude(deg)": -42.07924105662616,
        "Longitude(deg)": 113.5594650884377,
        "Mean Anomaly(deg)": -109.14309851775909,
        "RAAN(deg)": 329.9949635642643,
        "Satellite Name": "Constellation 1 1467",
        "Satellite Number": 1467,
        "Semi-Major Axis(m)": 7083131.272910544,
        "Time(s)": 89
    },
    {
        "Altitude(m)": 716621.9773070968,
        "Argument of Periapsis(deg)": 0.005395320562086505,
        "Eccentricity": 0.0,
        "Inclination(deg)": 45.0,
        "Latitude(deg)": -42.09809024733066,
        "Longitude(deg)": 113.63273385076594,
        "Mean Anomaly(deg)": -109.08239737750911,
        "RAAN(deg)": 329.99490697509873,
        "Satellite Name": "Constellation 1 1467",
        "Satellite Number": 1467,
        "Semi-Major Axis(m)": 7083131.272910544,
        "Time(s)": 90
    },
    {
        "Altitude(m)": 716629.7571592483,
        "Argument of Periapsis(deg)": 0.00545526856833191,
        "Eccentricity": 0.0,
        "Inclination(deg)": 45.0,
        "Latitude(deg)": -42.116887170775364,
        "Longitude(deg)": 113.70604828008557,
        "Mean Anomaly(deg)": -109.02169623725915,
        "RAAN(deg)": 329.9948503859332,
        "Satellite Name": "Constellation 1 1467",
        "Satellite Number": 1467,
        "Semi-Major Axis(m)": 7083131.272910544,
        "Time(s)": 91
    },
    {
        "Altitude(m)": 716637.5152220272,
        "Argument of Periapsis(deg)": 0.005515216574577317,
        "Eccentricity": 0.0,
        "Inclination(deg)": 45.0,
        "Latitude(deg)": -42.13563176252079,
        "Longitude(deg)": 113.77940830660255,
        "Mean Anomaly(deg)": -108.96099509700932,
        "RAAN(deg)": 329.99479379676757,
        "Satellite Name": "Constellation 1 1467",
        "Satellite Number": 1467,
        "Semi-Major Axis(m)": 7083131.272910544,
        "Time(s)": 92
    },
    {
        "Altitude(m)": 716645.2514669563,
        "Argument of Periapsis(deg)": 0.005575164580822722,
        "Eccentricity": 0.0,
        "Inclination(deg)": 45.0,
        "Latitude(deg)": -42.15432395820903,
        "Longitude(deg)": 113.85281385997662,
        "Mean Anomaly(deg)": -108.90029395675946,
        "RAAN(deg)": 329.99473720760204,
        "Satellite Name": "Constellation 1 1467",
        "Satellite Number": 1467,
        "Semi-Major Axis(m)": 7083131.272910544,
        "Time(s)": 93
    },
    {
        "Altitude(m)": 716652.9658656317,
        "Argument of Periapsis(deg)": 0.005635112587068129,
        "Eccentricity": 0.0,
        "Inclination(deg)": 45.0,
        "Latitude(deg)": -42.17296369356449,
        "Longitude(deg)": 113.9262648693206,
        "Mean Anomaly(deg)": -108.83959281650945,
        "RAAN(deg)": 329.99468061843646,
        "Satellite Name": "Constellation 1 1467",
        "Satellite Number": 1467,
        "Semi-Major Axis(m)": 7083131.272910544,
        "Time(s)": 94
    }
]